CCSDS_OMM_VERS = 2.0
CREATION_DATE  = 
ORIGINATOR     = 

OBJECT_NAME    = STARLINK-36629
OBJECT_ID      = 2026-018H
CENTER_NAME    = EARTH
REF_FRAME      = TEME
TIME_SYSTEM    = UTC
MEAN_ELEMENT_THEORY = SGP/SGP4

EPOCH          = 2026-02-06T14:00:01.999872
MEAN_MOTION    = 15.93443308
ECCENTRICITY   = .00012331
INCLINATION    = 97.2785
RA_OF_ASC_NODE = 101.7355
ARG_OF_PERICENTER = 85.1761
MEAN_ANOMALY   = 258.8125

EPHEMERIS_TYPE = 0
CLASSIFICATION_TYPE = U
NORAD_CAT_ID   = 67596
ELEMENT_SET_NO = 999
REV_AT_EPOCH   = 234
BSTAR          = -.47303593E-2
MEAN_MOTION_DOT = -.1665247E-1
MEAN_MOTION_DDOT = .78574337E-3

CCSDS_OMM_VERS = 2.0
CREATION_DATE  = 
ORIGINATOR     = 

OBJECT_NAME    = STARLINK-36384
OBJECT_ID      = 2026-018J
CENTER_NAME    = EARTH
REF_FRAME      = TEME
TIME_SYSTEM    = UTC
MEAN_ELEMENT_THEORY = SGP/SGP4

EPOCH          = 2026-02-06T14:00:01.999872
MEAN_MOTION    = 15.93649995
ECCENTRICITY   = .00013333
INCLINATION    = 97.2783
RA_OF_ASC_NODE = 101.7371
ARG_OF_PERICENTER = 78.0216
MEAN_ANOMALY   = 269.4322

EPHEMERIS_TYPE = 0
CLASSIFICATION_TYPE = U
NORAD_CAT_ID   = 67597
ELEMENT_SET_NO = 999
REV_AT_EPOCH   = 240
BSTAR          = -.46893997E-2
MEAN_MOTION_DOT = -.1668728E-1
MEAN_MOTION_DDOT = .79048121E-3

CCSDS_OMM_VERS = 2.0
CREATION_DATE  = 
ORIGINATOR     = 

OBJECT_NAME    = STARLINK-36358
OBJECT_ID      = 2026-018K
CENTER_NAME    = EARTH
REF_FRAME      = TEME
TIME_SYSTEM    = UTC
MEAN_ELEMENT_THEORY = SGP/SGP4

EPOCH          = 2026-02-06T14:00:01.999872
MEAN_MOTION    = 15.93781329
ECCENTRICITY   = .00011462
INCLINATION    = 97.2781
RA_OF_ASC_NODE = 101.7379
ARG_OF_PERICENTER = 94.1189
MEAN_ANOMALY   = 255.7852

EPHEMERIS_TYPE = 0
CLASSIFICATION_TYPE = U
NORAD_CAT_ID   = 67598
ELEMENT_SET_NO = 999
REV_AT_EPOCH   = 239
BSTAR          = -.46213309E-2
MEAN_MOTION_DOT = -.165596E-1
MEAN_MOTION_DDOT = .78032759E-3

CCSDS_OMM_VERS = 2.0
CREATION_DATE  = 
ORIGINATOR     = 

OBJECT_NAME    = STARLINK-36582
OBJECT_ID      = 2026-018L
CENTER_NAME    = EARTH
REF_FRAME      = TEME
TIME_SYSTEM    = UTC
MEAN_ELEMENT_THEORY = SGP/SGP4

EPOCH          = 2026-02-06T14:00:01.999872
MEAN_MOTION    = 15.93992513
ECCENTRICITY   = .00013052
INCLINATION    = 97.2780
RA_OF_ASC_NODE = 101.7397
ARG_OF_PERICENTER = 78.7436
MEAN_ANOMALY   = 274.8615

EPHEMERIS_TYPE = 0
CLASSIFICATION_TYPE = U
NORAD_CAT_ID   = 67599
ELEMENT_SET_NO = 999
REV_AT_EPOCH   = 245
BSTAR          = -.45255489E-2
MEAN_MOTION_DOT = -.1639919E-1
MEAN_MOTION_DDOT = .76801696E-3

CCSDS_OMM_VERS = 2.0
CREATION_DATE  = 
ORIGINATOR     = 

OBJECT_NAME    = STARLINK-36640
OBJECT_ID      = 2026-018M
CENTER_NAME    = EARTH
REF_FRAME      = TEME
TIME_SYSTEM    = UTC
MEAN_ELEMENT_THEORY = SGP/SGP4

EPOCH          = 2026-02-06T14:00:01.999872
MEAN_MOTION    = 15.94357035
ECCENTRICITY   = .00012359
INCLINATION    = 97.2777
RA_OF_ASC_NODE = 101.7424
ARG_OF_PERICENTER = 76.0918
MEAN_ANOMALY   = 283.7971

EPHEMERIS_TYPE = 0
CLASSIFICATION_TYPE = U
NORAD_CAT_ID   = 67600
ELEMENT_SET_NO = 999
REV_AT_EPOCH   = 235
BSTAR          = -.44272705E-2
MEAN_MOTION_DOT = -.1635415E-1
MEAN_MOTION_DDOT = .76699633E-3

CCSDS_OMM_VERS = 2.0
CREATION_DATE  = 
ORIGINATOR     = 

OBJECT_NAME    = STARLINK-36635
OBJECT_ID      = 2026-018N
CENTER_NAME    = EARTH
REF_FRAME      = TEME
TIME_SYSTEM    = UTC
MEAN_ELEMENT_THEORY = SGP/SGP4

EPOCH          = 2026-02-06T14:00:01.999872
MEAN_MOTION    = 15.94150705
ECCENTRICITY   = .00013443
INCLINATION    = 97.2778
RA_OF_ASC_NODE = 101.7407
ARG_OF_PERICENTER = 75.2908
MEAN_ANOMALY   = 281.0991

EPHEMERIS_TYPE = 0
CLASSIFICATION_TYPE = U
NORAD_CAT_ID   = 67601
ELEMENT_SET_NO = 999
REV_AT_EPOCH   = 235
BSTAR          = -.44896854E-2
MEAN_MOTION_DOT = -.1640508E-1
MEAN_MOTION_DDOT = .76979021E-3

CCSDS_OMM_VERS = 2.0
CREATION_DATE  = 
ORIGINATOR     = 

OBJECT_NAME    = STARLINK-36631
OBJECT_ID      = 2026-018P
CENTER_NAME    = EARTH
REF_FRAME      = TEME
TIME_SYSTEM    = UTC
MEAN_ELEMENT_THEORY = SGP/SGP4

EPOCH          = 2026-02-06T14:00:01.999872
MEAN_MOTION    = 15.94581507
ECCENTRICITY   = .00011928
INCLINATION    = 97.2773
RA_OF_ASC_NODE = 101.7439
ARG_OF_PERICENTER = 85.2484
MEAN_ANOMALY   = 278.3682

EPHEMERIS_TYPE = 0
CLASSIFICATION_TYPE = U
NORAD_CAT_ID   = 67602
ELEMENT_SET_NO = 999
REV_AT_EPOCH   = 234
BSTAR          = -.43799414E-2
MEAN_MOTION_DOT = -.1637192E-1
MEAN_MOTION_DDOT = .77034233E-3

CCSDS_OMM_VERS = 2.0
CREATION_DATE  = 
ORIGINATOR     = 

OBJECT_NAME    = STARLINK-36626
OBJECT_ID      = 2026-018Q
CENTER_NAME    = EARTH
REF_FRAME      = TEME
TIME_SYSTEM    = UTC
MEAN_ELEMENT_THEORY = SGP/SGP4

EPOCH          = 2026-02-06T14:00:01.999872
MEAN_MOTION    = 15.95126790
ECCENTRICITY   = .00013258
INCLINATION    = 97.2767
RA_OF_ASC_NODE = 101.7477
ARG_OF_PERICENTER = 79.6228
MEAN_ANOMALY   = 293.4979

EPHEMERIS_TYPE = 0
CLASSIFICATION_TYPE = U
NORAD_CAT_ID   = 67603
ELEMENT_SET_NO = 999
REV_AT_EPOCH   = 234
BSTAR          = -.41976754E-2
MEAN_MOTION_DOT = -.1615389E-1
MEAN_MOTION_DDOT = .75569167E-3

CCSDS_OMM_VERS = 2.0
CREATION_DATE  = 
ORIGINATOR     = 

OBJECT_NAME    = STARLINK-36605
OBJECT_ID      = 2026-018R
CENTER_NAME    = EARTH
REF_FRAME      = TEME
TIME_SYSTEM    = UTC
MEAN_ELEMENT_THEORY = SGP/SGP4

EPOCH          = 2026-02-06T14:00:01.999872
MEAN_MOTION    = 15.94984803
ECCENTRICITY   = .00011841
INCLINATION    = 97.2767
RA_OF_ASC_NODE = 101.7463
ARG_OF_PERICENTER = 83.8664
MEAN_ANOMALY   = 286.6974

EPHEMERIS_TYPE = 0
CLASSIFICATION_TYPE = U
NORAD_CAT_ID   = 67604
ELEMENT_SET_NO = 999
REV_AT_EPOCH   = 234
BSTAR          = -.42427805E-2
MEAN_MOTION_DOT = -.1620379E-1
MEAN_MOTION_DDOT = .7589014E-3

CCSDS_OMM_VERS = 2.0
CREATION_DATE  = 
ORIGINATOR     = 

OBJECT_NAME    = STARLINK-36281
OBJECT_ID      = 2026-018S
CENTER_NAME    = EARTH
REF_FRAME      = TEME
TIME_SYSTEM    = UTC
MEAN_ELEMENT_THEORY = SGP/SGP4

EPOCH          = 2026-02-06T14:00:01.999872
MEAN_MOTION    = 15.94795457
ECCENTRICITY   = .00012749
INCLINATION    = 97.2767
RA_OF_ASC_NODE = 101.7448
ARG_OF_PERICENTER = 83.2606
MEAN_ANOMALY   = 284.0899

EPHEMERIS_TYPE = 0
CLASSIFICATION_TYPE = U
NORAD_CAT_ID   = 67605
ELEMENT_SET_NO = 999
REV_AT_EPOCH   = 239
BSTAR          = -.42884409E-2
MEAN_MOTION_DOT = -.1621449E-1
MEAN_MOTION_DDOT = .75832831E-3

CCSDS_OMM_VERS = 2.0
CREATION_DATE  = 
ORIGINATOR     = 

OBJECT_NAME    = STARLINK-35843
OBJECT_ID      = 2026-018T
CENTER_NAME    = EARTH
REF_FRAME      = TEME
TIME_SYSTEM    = UTC
MEAN_ELEMENT_THEORY = SGP/SGP4

EPOCH          = 2026-02-06T14:00:01.999872
MEAN_MOTION    = 15.95289987
ECCENTRICITY   = .00012859
INCLINATION    = 97.2763
RA_OF_ASC_NODE = 101.7485
ARG_OF_PERICENTER = 81.0963
MEAN_ANOMALY   = 294.9858

EPHEMERIS_TYPE = 0
CLASSIFICATION_TYPE = U
NORAD_CAT_ID   = 67606
ELEMENT_SET_NO = 999
REV_AT_EPOCH   = 240
BSTAR          = -.4119388E-2
MEAN_MOTION_DOT = -.1599281E-1
MEAN_MOTION_DDOT = .74302764E-3

CCSDS_OMM_VERS = 2.0
CREATION_DATE  = 
ORIGINATOR     = 

OBJECT_NAME    = STARLINK-36351
OBJECT_ID      = 2026-018U
CENTER_NAME    = EARTH
REF_FRAME      = TEME
TIME_SYSTEM    = UTC
MEAN_ELEMENT_THEORY = SGP/SGP4

EPOCH          = 2026-02-06T14:00:01.999872
MEAN_MOTION    = 15.95441641
ECCENTRICITY   = .00012564
INCLINATION    = 97.2765
RA_OF_ASC_NODE = 101.7499
ARG_OF_PERICENTER = 86.1044
MEAN_ANOMALY   = 292.5979

EPHEMERIS_TYPE = 0
CLASSIFICATION_TYPE = U
NORAD_CAT_ID   = 67607
ELEMENT_SET_NO = 999
REV_AT_EPOCH   = 240
BSTAR          = -.40920307E-2
MEAN_MOTION_DOT = -.1601537E-1
MEAN_MOTION_DDOT = .74616485E-3

