STARLINK-36629          
1 67596U 26018H   26037.58335648 -.01665247  78574-3 -47304-2 0  9997
2 67596  97.2785 101.7355 0001233  85.1761 258.8125 15.93443308  2342
STARLINK-36384          
1 67597U 26018J   26037.58335648 -.01668728  79048-3 -46894-2 0  9995
2 67597  97.2783 101.7371 0001333  78.0216 269.4322 15.93649995  2400
STARLINK-36358          
1 67598U 26018K   26037.58335648 -.01655960  78033-3 -46213-2 0  9998
2 67598  97.2781 101.7379 0001146  94.1189 255.7852 15.93781329  2399
STARLINK-36582          
1 67599U 26018L   26037.58335648 -.01639919  76802-3 -45255-2 0  9992
2 67599  97.2780 101.7397 0001305  78.7436 274.8615 15.93992513  2454
STARLINK-36640          
1 67600U 26018M   26037.58335648 -.01635415  76700-3 -44273-2 0  9998
2 67600  97.2777 101.7424 0001235  76.0918 283.7971 15.94357035  2350
STARLINK-36635          
1 67601U 26018N   26037.58335648 -.01640508  76979-3 -44897-2 0  9998
2 67601  97.2778 101.7407 0001344  75.2908 281.0991 15.94150705  2352
STARLINK-36631          
1 67602U 26018P   26037.58335648 -.01637192  77034-3 -43799-2 0  9997
2 67602  97.2773 101.7439 0001192  85.2484 278.3682 15.94581507  2347
STARLINK-36626          
1 67603U 26018Q   26037.58335648 -.01615389  75569-3 -41977-2 0  9999
2 67603  97.2767 101.7477 0001325  79.6228 293.4979 15.95126790  2341
STARLINK-36605          
1 67604U 26018R   26037.58335648 -.01620379  75890-3 -42428-2 0  9994
2 67604  97.2767 101.7463 0001184  83.8664 286.6974 15.94984803  2346
STARLINK-36281          
1 67605U 26018S   26037.58335648 -.01621449  75833-3 -42884-2 0  9997
2 67605  97.2767 101.7448 0001274  83.2606 284.0899 15.94795457  2398
STARLINK-35843          
1 67606U 26018T   26037.58335648 -.01599281  74303-3 -41194-2 0  9990
2 67606  97.2763 101.7485 0001285  81.0963 294.9858 15.95289987  2404
STARLINK-36351          
1 67607U 26018U   26037.58335648 -.01601537  74616-3 -40920-2 0  9992
2 67607  97.2765 101.7499 0001256  86.1044 292.5979 15.95441641  2401
